{
  "norad_id": 61258,
  "name": "STARLINK-32382",
  "history": [
    {
      "epoch": "2026-03-28T18:26:24.438624Z",
      "apogee_km": 476.32886210208653,
      "perigee_km": 474.1344134642686,
      "latitude_deg": 2.5253335541679227e-06,
      "longitude_deg": 2.702129512365763,
      "height_km": 476.0773850725591,
      "semi_major_axis_km": 6853.368637783177,
      "eccentricity": 0.0001601,
      "inclination_deg": 53.1607,
      "raan_deg": 105.488,
      "arg_perigee_deg": 87.2866,
      "mean_anomaly_deg": 272.8318,
      "mean_motion_rev_day": 15.30194451
    }
  ]
}